{
  "type": "FeatureCollection",
  "features": [
    {
      "type": "Feature",
      "properties": {
        "norad_id": 51444,
        "name": "CSG-2",
        "group": "resource",
        "lat": 79.19635690125462,
        "lon": 28.657813224422515,
        "alt_km": 614.1452454103592,
        "timestamp": "2025-12-06T16:45:42.384624+00:00",
        "meta_object_name": "CSG-2",
        "meta_object_id": "2022-008A",
        "meta_epoch": "2025-12-06T06:36:09.173952",
        "meta_mean_motion": 14.82153619,
        "meta_eccentricity": 0.00014972,
        "meta_inclination": 97.8814,
        "meta_ra_of_asc_node": 161.6958,
        "meta_arg_of_pericenter": 88.7377,
        "meta_mean_anomaly": 271.4008,
        "meta_ephemeris_type": 0,
        "meta_classification_type": "U",
        "meta_norad_cat_id": 51444,
        "meta_element_set_no": 999,
        "meta_rev_at_epoch": 20801,
        "meta_bstar": 0.00012096698,
        "meta_mean_motion_dot": 9.11e-06,
        "meta_mean_motion_ddot": 0,
        "tle_line1": "1 51444U 22008A   25340.27510618  .00000911  00000+0  12097-3 0  9996",
        "tle_line2": "2 51444  97.8814 161.6958 0001497  88.7377 271.4008 14.82153619208017"
      },
      "geometry": {
        "type": "Point",
        "coordinates": [
          28.657813224422515,
          79.19635690125462
        ]
      }
    },
    {
      "type": "Feature",
      "properties": {
        "norad_id": 52912,
        "name": "GAOFEN-12 03",
        "group": "resource",
        "lat": 68.12560645924296,
        "lon": -151.90959388029356,
        "alt_km": 622.3815142257263,
        "timestamp": "2025-12-06T16:45:42.384634+00:00",
        "meta_object_name": "GAOFEN-12 03",
        "meta_object_id": "2022-069A",
        "meta_epoch": "2025-12-06T06:42:37.600704",
        "meta_mean_motion": 14.79585738,
        "meta_eccentricity": 0.00023161,
        "meta_inclination": 97.849,
        "meta_ra_of_asc_node": 227.7776,
        "meta_arg_of_pericenter": 73.3611,
        "meta_mean_anomaly": 286.7855,
        "meta_ephemeris_type": 0,
        "meta_classification_type": "U",
        "meta_norad_cat_id": 52912,
        "meta_element_set_no": 999,
        "meta_rev_at_epoch": 18608,
        "meta_bstar": 0.00032737084,
        "meta_mean_motion_dot": 2.402e-05,
        "meta_mean_motion_ddot": 0,
        "tle_line1": "1 52912U 22069A   25340.27960186  .00002402  00000+0  32737-3 0  9993",
        "tle_line2": "2 52912  97.8490 227.7776 0002316  73.3611 286.7855 14.79585738186080"
      },
      "geometry": {
        "type": "Point",
        "coordinates": [
          -151.90959388029356,
          68.12560645924296
        ]
      }
    },
    {
      "type": "Feature",
      "properties": {
        "norad_id": 54754,
        "name": "SWOT",
        "group": "resource",
        "lat": -31.69413568426448,
        "lon": -72.6553737625875,
        "alt_km": 899.2799941289832,
        "timestamp": "2025-12-06T16:45:42.384644+00:00",
        "meta_object_name": "SWOT",
        "meta_object_id": "2022-173A",
        "meta_epoch": "2025-12-06T06:37:38.904672",
        "meta_mean_motion": 14.00173228,
        "meta_eccentricity": 3.451e-05,
        "meta_inclination": 77.61,
        "meta_ra_of_asc_node": 295.7154,
        "meta_arg_of_pericenter": 132.6188,
        "meta_mean_anomaly": 227.4993,
        "meta_ephemeris_type": 0,
        "meta_classification_type": "U",
        "meta_norad_cat_id": 54754,
        "meta_element_set_no": 999,
        "meta_rev_at_epoch": 15215,
        "meta_bstar": 0.00012003539,
        "meta_mean_motion_dot": 1.74e-06,
        "meta_mean_motion_ddot": 0,
        "tle_line1": "1 54754U 22173A   25340.27614473  .00000174  00000+0  12004-3 0  9999",
        "tle_line2": "2 54754  77.6100 295.7154 0000345 132.6188 227.4993 14.00173228152150"
      },
      "geometry": {
        "type": "Point",
        "coordinates": [
          -72.6553737625875,
          -31.69413568426448
        ]
      }
    },
    {
      "type": "Feature",
      "properties": {
        "norad_id": 57654,
        "name": "GAOFEN-12 04",
        "group": "resource",
        "lat": -56.43581218242976,
        "lon": 64.44812762944859,
        "alt_km": 638.4052039563867,
        "timestamp": "2025-12-06T16:45:42.384654+00:00",
        "meta_object_name": "GAOFEN-12 04",
        "meta_object_id": "2023-123A",
        "meta_epoch": "2025-12-06T05:57:18.787968",
        "meta_mean_motion": 14.79670954,
        "meta_eccentricity": 0.00014278,
        "meta_inclination": 97.9121,
        "meta_ra_of_asc_node": 256.1038,
        "meta_arg_of_pericenter": 72.4544,
        "meta_mean_anomaly": 287.6824,
        "meta_ephemeris_type": 0,
        "meta_classification_type": "U",
        "meta_norad_cat_id": 57654,
        "meta_element_set_no": 999,
        "meta_rev_at_epoch": 12409,
        "meta_bstar": 0.00040047061,
        "meta_mean_motion_dot": 2.955e-05,
        "meta_mean_motion_ddot": 0,
        "tle_line1": "1 57654U 23123A   25340.24813412  .00002955  00000+0  40047-3 0  9995",
        "tle_line2": "2 57654  97.9121 256.1038 0001427  72.4544 287.6824 14.79670954124098"
      },
      "geometry": {
        "type": "Point",
        "coordinates": [
          64.44812762944859,
          -56.43581218242976
        ]
      }
    },
    {
      "type": "Feature",
      "properties": {
        "norad_id": 59065,
        "name": "PARS 1",
        "group": "resource",
        "lat": 24.83770635434917,
        "lon": -51.97426819011776,
        "alt_km": 439.49323436095256,
        "timestamp": "2025-12-06T16:45:42.384664+00:00",
        "meta_object_name": "PARS 1",
        "meta_object_id": "2024-039Q",
        "meta_epoch": "2025-12-06T04:11:02.210496",
        "meta_mean_motion": 15.40756573,
        "meta_eccentricity": 0.00126942,
        "meta_inclination": 97.4627,
        "meta_ra_of_asc_node": 310.9692,
        "meta_arg_of_pericenter": 91.5807,
        "meta_mean_anomaly": 268.6894,
        "meta_ephemeris_type": 0,
        "meta_classification_type": "U",
        "meta_norad_cat_id": 59065,
        "meta_element_set_no": 999,
        "meta_rev_at_epoch": 9887,
        "meta_bstar": 0.0004192432,
        "meta_mean_motion_dot": 0.00017126,
        "meta_mean_motion_ddot": 0,
        "tle_line1": "1 59065U 24039Q   25340.17433114  .00017126  00000+0  41924-3 0  9990",
        "tle_line2": "2 59065  97.4627 310.9692 0012694  91.5807 268.6894 15.40756573 98872"
      },
      "geometry": {
        "type": "Point",
        "coordinates": [
          -51.97426819011776,
          24.83770635434917
        ]
      }
    },
    {
      "type": "Feature",
      "properties": {
        "norad_id": 59371,
        "name": "RESURS-P 4",
        "group": "resource",
        "lat": -1.043522257174528,
        "lon": -72.71473811961725,
        "alt_km": 472.2333529977177,
        "timestamp": "2025-12-06T16:45:42.384674+00:00",
        "meta_object_name": "RESURS-P 4",
        "meta_object_id": "2024-061A",
        "meta_epoch": "2025-12-06T07:21:39.085632",
        "meta_mean_motion": 15.32009714,
        "meta_eccentricity": 0.00019642,
        "meta_inclination": 97.254,
        "meta_ra_of_asc_node": 286.7687,
        "meta_arg_of_pericenter": 53.3068,
        "meta_mean_anomaly": 306.8354,
        "meta_ephemeris_type": 0,
        "meta_classification_type": "U",
        "meta_norad_cat_id": 59371,
        "meta_element_set_no": 999,
        "meta_rev_at_epoch": 9422,
        "meta_bstar": 0.00022462461,
        "meta_mean_motion_dot": 6.866e-05,
        "meta_mean_motion_ddot": 0,
        "tle_line1": "1 59371U 24061A   25340.30670238  .00006866  00000+0  22462-3 0  9995",
        "tle_line2": "2 59371  97.2540 286.7687 0001964  53.3068 306.8354 15.32009714 94221"
      },
      "geometry": {
        "type": "Point",
        "coordinates": [
          -72.71473811961725,
          -1.043522257174528
        ]
      }
    },
    {
      "type": "Feature",
      "properties": {
        "norad_id": 59625,
        "name": "LEGION 1",
        "group": "resource",
        "lat": -22.952659579205495,
        "lon": -127.81890907623324,
        "alt_km": 524.623865857312,
        "timestamp": "2025-12-06T16:45:42.384684+00:00",
        "meta_object_name": "LEGION 1",
        "meta_object_id": "2024-081A",
        "meta_epoch": "2025-12-06T06:21:59.729760",
        "meta_mean_motion": 15.16384708,
        "meta_eccentricity": 0.00044405,
        "meta_inclination": 97.5223,
        "meta_ra_of_asc_node": 54.9597,
        "meta_arg_of_pericenter": 344.7871,
        "meta_mean_anomaly": 15.3227,
        "meta_ephemeris_type": 0,
        "meta_classification_type": "U",
        "meta_norad_cat_id": 59625,
        "meta_element_set_no": 999,
        "meta_rev_at_epoch": 8829,
        "meta_bstar": 0.00044459639,
        "meta_mean_motion_dot": 8.571e-05,
        "meta_mean_motion_ddot": 0,
        "tle_line1": "1 59625U 24081A   25340.26527465  .00008571  00000+0  44460-3 0  9994",
        "tle_line2": "2 59625  97.5223  54.9597 0004440 344.7871  15.3227 15.16384708 88292"
      },
      "geometry": {
        "type": "Point",
        "coordinates": [
          -127.81890907623324,
          -22.952659579205495
        ]
      }
    }
  ]
}